STARLINK-2396           
1 47815U 21018AE  26068.71700811 -.00002539  00000+0 -73640-4 0  9998
2 47815  53.1602 242.5663 0001192  95.5807 264.5329 15.30191012276727
TRANSPORTER-12 OBJECT AZ
1 62656U 25009AZ  26068.71026235  .00016057  00000+0  54903-3 0  9991
2 62656  97.3981 151.9913 0000987  45.3581 314.7740 15.30349724 63792
